{
  "type": "FeatureCollection",
  "features": [
    {
      "type": "Feature",
      "properties": {
        "norad_id": 41859,
        "name": "GSAT0207 (GALILEO 15)",
        "group": "gnss",
        "lat": -51.262425650993826,
        "lon": 47.00751029305236,
        "alt_km": 23222.57027938342,
        "timestamp": "2025-12-08T13:49:32.034665+00:00",
        "meta_object_name": "GSAT0207 (GALILEO 15)",
        "meta_object_id": "2016-069A",
        "meta_epoch": "2025-12-06T22:22:57.829728",
        "meta_mean_motion": 1.70474256,
        "meta_eccentricity": 0.00021753,
        "meta_inclination": 55.3787,
        "meta_ra_of_asc_node": 106.4111,
        "meta_arg_of_pericenter": 324.2379,
        "meta_mean_anomaly": 35.7022,
        "meta_ephemeris_type": 0,
        "meta_classification_type": "U",
        "meta_norad_cat_id": 41859,
        "meta_element_set_no": 999,
        "meta_rev_at_epoch": 5612,
        "meta_bstar": 0,
        "meta_mean_motion_dot": 7e-08,
        "meta_mean_motion_ddot": 0,
        "tle_line1": "1 41859U 16069A   25340.93261377  .00000007  00000+0  00000+0 0  9996",
        "tle_line2": "2 41859  55.3787 106.4111 0002175 324.2379  35.7022  1.70474256 56122"
      },
      "geometry": {
        "type": "Point",
        "coordinates": [
          47.00751029305236,
          -51.262425650993826
        ]
      }
    },
    {
      "type": "Feature",
      "properties": {
        "norad_id": 41860,
        "name": "GSAT0212 (GALILEO 16)",
        "group": "gnss",
        "lat": 15.084675976299087,
        "lon": 117.07082191113837,
        "alt_km": 23214.019592321463,
        "timestamp": "2025-12-08T13:49:32.034677+00:00",
        "meta_object_name": "GSAT0212 (GALILEO 16)",
        "meta_object_id": "2016-069B",
        "meta_epoch": "2025-12-06T04:47:33.838080",
        "meta_mean_motion": 1.70474471,
        "meta_eccentricity": 0.00022225,
        "meta_inclination": 55.376,
        "meta_ra_of_asc_node": 106.4267,
        "meta_arg_of_pericenter": 32.4045,
        "meta_mean_anomaly": 327.5613,
        "meta_ephemeris_type": 0,
        "meta_classification_type": "U",
        "meta_norad_cat_id": 41860,
        "meta_element_set_no": 999,
        "meta_rev_at_epoch": 5636,
        "meta_bstar": 0,
        "meta_mean_motion_dot": 6e-08,
        "meta_mean_motion_ddot": 0,
        "tle_line1": "1 41860U 16069B   25340.19969720  .00000006  00000+0  00000+0 0  9992",
        "tle_line2": "2 41860  55.3760 106.4267 0002222  32.4045 327.5613  1.70474471 56361"
      },
      "geometry": {
        "type": "Point",
        "coordinates": [
          117.07082191113837,
          15.084675976299087
        ]
      }
    },
    {
      "type": "Feature",
      "properties": {
        "norad_id": 41861,
        "name": "GSAT0213 (GALILEO 17)",
        "group": "gnss",
        "lat": 22.06546498213587,
        "lon": -89.88773029220513,
        "alt_km": 23223.72475162575,
        "timestamp": "2025-12-08T13:49:32.034688+00:00",
        "meta_object_name": "GSAT0213 (GALILEO 17)",
        "meta_object_id": "2016-069C",
        "meta_epoch": "2025-12-07T03:41:32.905248",
        "meta_mean_motion": 1.70474767,
        "meta_eccentricity": 0.00022126,
        "meta_inclination": 55.379,
        "meta_ra_of_asc_node": 106.408,
        "meta_arg_of_pericenter": 283.542,
        "meta_mean_anomaly": 76.3889,
        "meta_ephemeris_type": 0,
        "meta_classification_type": "U",
        "meta_norad_cat_id": 41861,
        "meta_element_set_no": 999,
        "meta_rev_at_epoch": 5624,
        "meta_bstar": 0,
        "meta_mean_motion_dot": 7e-08,
        "meta_mean_motion_ddot": 0,
        "tle_line1": "1 41861U 16069C   25341.15385307  .00000007  00000+0  00000+0 0  9994",
        "tle_line2": "2 41861  55.3790 106.4080 0002212 283.5420  76.3889  1.70474767 56242"
      },
      "geometry": {
        "type": "Point",
        "coordinates": [
          -89.88773029220513,
          22.06546498213587
        ]
      }
    },
    {
      "type": "Feature",
      "properties": {
        "norad_id": 41862,
        "name": "GSAT0214 (GALILEO 18)",
        "group": "gnss",
        "lat": 47.30069291974717,
        "lon": 154.76352070225735,
        "alt_km": 23218.929576861985,
        "timestamp": "2025-12-08T13:49:32.034698+00:00",
        "meta_object_name": "GSAT0214 (GALILEO 18)",
        "meta_object_id": "2016-069D",
        "meta_epoch": "2025-12-07T07:11:47.189472",
        "meta_mean_motion": 1.70474588,
        "meta_eccentricity": 0.00012146,
        "meta_inclination": 55.3773,
        "meta_ra_of_asc_node": 106.3967,
        "meta_arg_of_pericenter": 290.4025,
        "meta_mean_anomaly": 69.5406,
        "meta_ephemeris_type": 0,
        "meta_classification_type": "U",
        "meta_norad_cat_id": 41862,
        "meta_element_set_no": 999,
        "meta_rev_at_epoch": 5637,
        "meta_bstar": 0,
        "meta_mean_motion_dot": 7e-08,
        "meta_mean_motion_ddot": 0,
        "tle_line1": "1 41862U 16069D   25341.29985173  .00000007  00000+0  00000+0 0  9997",
        "tle_line2": "2 41862  55.3773 106.3967 0001214 290.4025  69.5406  1.70474588 56370"
      },
      "geometry": {
        "type": "Point",
        "coordinates": [
          154.76352070225735,
          47.30069291974717
        ]
      }
    },
    {
      "type": "Feature",
      "properties": {
        "norad_id": 42709,
        "name": "SES-15 (WAAS/PRN 133)",
        "group": "gnss",
        "lat": 0.007473151462682293,
        "lon": 155.77739791756605,
        "alt_km": 35788.977235628496,
        "timestamp": "2025-12-08T13:49:32.034710+00:00",
        "meta_object_name": "SES-15 (WAAS/PRN 133)",
        "meta_object_id": "2017-026A",
        "meta_epoch": "2025-12-08T05:44:47.292864",
        "meta_mean_motion": 1.00266538,
        "meta_eccentricity": 5.142e-05,
        "meta_inclination": 0.0198,
        "meta_ra_of_asc_node": 348.5244,
        "meta_arg_of_pericenter": 299.3399,
        "meta_mean_anomaly": 106.4104,
        "meta_ephemeris_type": 0,
        "meta_classification_type": "U",
        "meta_norad_cat_id": 42709,
        "meta_element_set_no": 999,
        "meta_rev_at_epoch": 551,
        "meta_bstar": 0,
        "meta_mean_motion_dot": 6.3e-07,
        "meta_mean_motion_ddot": 0,
        "tle_line1": "1 42709U 17026A   25342.23943626  .00000063  00000+0  00000+0 0  9996",
        "tle_line2": "2 42709   0.0198 348.5244 0000514 299.3399 106.4104  1.00266538  5514"
      },
      "geometry": {
        "type": "Point",
        "coordinates": [
          155.77739791756605,
          0.007473151462682293
        ]
      }
    },
    {
      "type": "Feature",
      "properties": {
        "norad_id": 42738,
        "name": "QZS-2 (QZSS/PRN 194)",
        "group": "gnss",
        "lat": 5.1253552331059264,
        "lon": 59.77515861682566,
        "alt_km": 35957.24839318751,
        "timestamp": "2025-12-08T13:49:32.034722+00:00",
        "meta_object_name": "QZS-2 (QZSS/PRN 194)",
        "meta_object_id": "2017-028A",
        "meta_epoch": "2025-12-07T14:16:11.320608",
        "meta_mean_motion": 1.0028442,
        "meta_eccentricity": 0.07584265,
        "meta_inclination": 39.7227,
        "meta_ra_of_asc_node": 245.9588,
        "meta_arg_of_pericenter": 269.4237,
        "meta_mean_anomaly": 276.9001,
        "meta_ephemeris_type": 0,
        "meta_classification_type": "U",
        "meta_norad_cat_id": 42738,
        "meta_element_set_no": 999,
        "meta_rev_at_epoch": 570,
        "meta_bstar": 0,
        "meta_mean_motion_dot": -1.76e-06,
        "meta_mean_motion_ddot": 0,
        "tle_line1": "1 42738U 17028A   25341.59457547 -.00000176  00000+0  00000+0 0  9996",
        "tle_line2": "2 42738  39.7227 245.9588 0758426 269.4237 276.9001  1.00284420  5700"
      },
      "geometry": {
        "type": "Point",
        "coordinates": [
          59.77515861682566,
          5.1253552331059264
        ]
      }
    },
    {
      "type": "Feature",
      "properties": {
        "norad_id": 42917,
        "name": "QZS-3 (QZSS/PRN 199)",
        "group": "gnss",
        "lat": 0.002168599175783326,
        "lon": 52.01384802090224,
        "alt_km": 35793.506632535245,
        "timestamp": "2025-12-08T13:49:32.034734+00:00",
        "meta_object_name": "QZS-3 (QZSS/PRN 199)",
        "meta_object_id": "2017-048A",
        "meta_epoch": "2025-12-08T07:21:35.625312",
        "meta_mean_motion": 1.00273809,
        "meta_eccentricity": 0.00021882,
        "meta_inclination": 0.0656,
        "meta_ra_of_asc_node": 208.7923,
        "meta_arg_of_pericenter": 54.1722,
        "meta_mean_anomaly": 51.7887,
        "meta_ephemeris_type": 0,
        "meta_classification_type": "U",
        "meta_norad_cat_id": 42917,
        "meta_element_set_no": 999,
        "meta_rev_at_epoch": 3034,
        "meta_bstar": 0,
        "meta_mean_motion_dot": -3.45e-06,
        "meta_mean_motion_ddot": 0,
        "tle_line1": "1 42917U 17048A   25342.30666233 -.00000345  00000+0  00000+0 0  9999",
        "tle_line2": "2 42917   0.0656 208.7923 0002188  54.1722  51.7887  1.00273809 30349"
      },
      "geometry": {
        "type": "Point",
        "coordinates": [
          52.01384802090224,
          0.002168599175783326
        ]
      }
    }
  ]
}